{"type": "FeatureCollection", "features": [ {"type": "Feature", "properties": {"norad_id": 32289, "name": "YAOGAN-3", "group": "resource", "lat": -65.50828456602632, "lon": 29.89393667718987, "alt_km": 606.2998304562452, "timestamp": "2025-12-11T15:53:39.198704+00:00", "meta": {"OBJECT_NAME": "YAOGAN-3", "OBJECT_ID": "2007-055A", "EPOCH": "2025-12-11T08:08:01.783392", "MEAN_MOTION": 14.89845944, "ECCENTRICITY": 0.00012386, "INCLINATION": 97.8365, "RA_OF_ASC_NODE": 11.9761, "ARG_OF_PERICENTER": 73.4807, "MEAN_ANOMALY": 286.6547, "EPHEMERIS_TYPE": 0, "CLASSIFICATION_TYPE": "U", "NORAD_CAT_ID": 32289, "ELEMENT_SET_NO": 999, "REV_AT_EPOCH": 97788, "BSTAR": 0.00040357976, "MEAN_MOTION_DOT": 3.822e-05, "MEAN_MOTION_DDOT": 0}, "tle": {"line1": "1 32289U 07055A   25345.33890953  .00003822  00000+0  40358-3 0  9997", "line2": "2 32289  97.8365  11.9761 0001238  73.4807 286.6547 14.89845944977885"}}, "geometry": {"type": "Point", "coordinates": [29.89393667718987, -65.50828456602632]}}, {"type": "Feature", "properties": {"norad_id": 32376, "name": "COSMO-SKYMED 2", "group": "resource", "lat": -61.26990195792492, "lon": -27.63484302945257, "alt_km": 630.6544251255436, "timestamp": "2025-12-11T15:53:39.198715+00:00", "meta": {"OBJECT_NAME": "COSMO-SKYMED 2", "OBJECT_ID": "2007-059A", "EPOCH": "2025-12-11T06:42:12.658752", "MEAN_MOTION": 14.82167079, "ECCENTRICITY": 0.00015229, "INCLINATION": 97.8811, "RA_OF_ASC_NODE": 166.6251, "ARG_OF_PERICENTER": 84.8208, "MEAN_ANOMALY": 275.3179, "EPHEMERIS_TYPE": 0, "CLASSIFICATION_TYPE": "U", "NORAD_CAT_ID": 32376, "ELEMENT_SET_NO": 999, "REV_AT_EPOCH": 97416, "BSTAR": 0.00018847227, "MEAN_MOTION_DOT": 1.449e-05, "MEAN_MOTION_DDOT": 0}, "tle": {"line1": "1 32376U 07059A   25345.27931318  .00001449  00000+0  18847-3 0  9993", "line2": "2 32376  97.8811 166.6251 0001522  84.8208 275.3179 14.82167079974160"}}, "geometry": {"type": "Point", "coordinates": [-27.63484302945257, -61.26990195792492]}}, {"type": "Feature", "properties": {"norad_id": 32382, "name": "RADARSAT-2", "group": "resource", "lat": 32.655277653939855, "lon": -15.284841050999598, "alt_km": 789.3116201817311, "timestamp": "2025-12-11T15:53:39.198725+00:00", "meta": {"OBJECT_NAME": "RADARSAT-2", "OBJECT_ID": "2007-061A", "EPOCH": "2025-12-11T07:20:36.815424", "MEAN_MOTION": 14.29980619, "ECCENTRICITY": 0.00011109, "INCLINATION": 98.58, "RA_OF_ASC_NODE": 349.9166, "ARG_OF_PERICENTER": 86.4776, "MEAN_ANOMALY": 273.6534, "EPHEMERIS_TYPE": 0, "CLASSIFICATION_TYPE": "U", "NORAD_CAT_ID": 32382, "ELEMENT_SET_NO": 999, "REV_AT_EPOCH": 93910, "BSTAR": -3.9989287e-05, "MEAN_MOTION_DOT": -1.47e-06, "MEAN_MOTION_DDOT": 0}, "tle": {"line1": "1 32382U 07061A   25345.30598166 -.00000147  00000+0 -39989-4 0  9994", "line2": "2 32382  98.5800 349.9166 0001110  86.4776 273.6534 14.29980619939100"}}, "geometry": {"type": "Point", "coordinates": [-15.284841050999598, 32.655277653939855]}}, {"type": "Feature", "properties": {"norad_id": 32783, "name": "CARTOSAT-2A", "group": "resource", "lat": 34.00503241707752, "lon": 30.21789445047483, "alt_km": 622.9808914242794, "timestamp": "2025-12-11T15:53:39.198736+00:00", "meta": {"OBJECT_NAME": "CARTOSAT-2A", "OBJECT_ID": "2008-021A", "EPOCH": "2025-12-11T07:37:14.907360", "MEAN_MOTION": 14.78934343, "ECCENTRICITY": 0.00120249, "INCLINATION": 97.7929, "RA_OF_ASC_NODE": 35.1851, "ARG_OF_PERICENTER": 9.3233, "MEAN_ANOMALY": 350.82, "EPHEMERIS_TYPE": 0, "CLASSIFICATION_TYPE": "U", "NORAD_CAT_ID": 32783, "ELEMENT_SET_NO": 999, "REV_AT_EPOCH": 95103, "BSTAR": 0.00025211669, "MEAN_MOTION_DOT": 1.811e-05, "MEAN_MOTION_DDOT": 0}, "tle": {"line1": "1 32783U 08021A   25345.31753365  .00001811  00000+0  25212-3 0  9991", "line2": "2 32783  97.7929  35.1851 0012024   9.3233 350.8200 14.78934343951032"}}, "geometry": {"type": "Point", "coordinates": [30.21789445047483, 34.00503241707752]}}, {"type": "Feature", "properties": {"norad_id": 33320, "name": "HUANJING 1A (HJ-1A)", "group": "resource", "lat": -61.533353765389904, "lon": 139.64391855518963, "alt_km": 638.7500735199656, "timestamp": "2025-12-11T15:53:39.198746+00:00", "meta": {"OBJECT_NAME": "HUANJING 1A (HJ-1A)", "OBJECT_ID": "2008-041A", "EPOCH": "2025-12-11T06:42:36.715104", "MEAN_MOTION": 14.8338928, "ECCENTRICITY": 0.00203255, "INCLINATION": 97.6547, "RA_OF_ASC_NODE": 333.6391, "ARG_OF_PERICENTER": 39.0871, "MEAN_ANOMALY": 321.1808, "EPHEMERIS_TYPE": 0, "CLASSIFICATION_TYPE": "U", "NORAD_CAT_ID": 33320, "ELEMENT_SET_NO": 999, "REV_AT_EPOCH": 93054, "BSTAR": 0.00039339924, "MEAN_MOTION_DOT": 3.188e-05, "MEAN_MOTION_DDOT": 0}, "tle": {"line1": "1 33320U 08041A   25345.27959161  .00003188  00000+0  39340-3 0  9994", "line2": "2 33320  97.6547 333.6391 0020325  39.0871 321.1808 14.83389280930549"}}, "geometry": {"type": "Point", "coordinates": [139.64391855518963, -61.533353765389904]}}, {"type": "Feature", "properties": {"norad_id": 33321, "name": "HUANJING 1B (HJ-1B)", "group": "resource", "lat": 72.23615633405723, "lon": -177.52303152796827, "alt_km": 589.6402970673735, "timestamp": "2025-12-11T15:53:39.198759+00:00", "meta": {"OBJECT_NAME": "HUANJING 1B (HJ-1B)", "OBJECT_ID": "2008-041B", "EPOCH": "2025-12-11T05:42:11.814336", "MEAN_MOTION": 14.82814688, "ECCENTRICITY": 0.00382714, "INCLINATION": 97.6403, "RA_OF_ASC_NODE": 337.2996, "ARG_OF_PERICENTER": 80.3328, "MEAN_ANOMALY": 280.2206, "EPHEMERIS_TYPE": 0, "CLASSIFICATION_TYPE": "U", "NORAD_CAT_ID": 33321, "ELEMENT_SET_NO": 999, "REV_AT_EPOCH": 93055, "BSTAR": 0.00023348912, "MEAN_MOTION_DOT": 1.862e-05, "MEAN_MOTION_DDOT": 0}, "tle": {"line1": "1 33321U 08041B   25345.23763674  .00001862  00000+0  23349-3 0  9992", "line2": "2 33321  97.6403 337.2996 0038271  80.3328 280.2206 14.82814688930559"}}, "geometry": {"type": "Point", "coordinates": [-177.52303152796827, 72.23615633405723]}}, {"type": "Feature", "properties": {"norad_id": 33331, "name": "GEOEYE 1", "group": "resource", "lat": 17.96552190481272, "lon": -120.38838044820346, "alt_km": 679.044798964278, "timestamp": "2025-12-11T15:53:39.198769+00:00", "meta": {"OBJECT_NAME": "GEOEYE 1", "OBJECT_ID": "2008-042A", "EPOCH": "2025-12-11T05:19:17.302656", "MEAN_MOTION": 14.6480927, "ECCENTRICITY": 0.00027463, "INCLINATION": 98.1254, "RA_OF_ASC_NODE": 56.5214, "ARG_OF_PERICENTER": 283.1614, "MEAN_ANOMALY": 76.9282, "EPHEMERIS_TYPE": 0, "CLASSIFICATION_TYPE": "U", "NORAD_CAT_ID": 33331, "ELEMENT_SET_NO": 999, "REV_AT_EPOCH": 92263, "BSTAR": 0.00018685944, "MEAN_MOTION_DOT": 9.49e-06, "MEAN_MOTION_DDOT": 0}, "tle": {"line1": "1 33331U 08042A   25345.22172804  .00000949  00000+0  18686-3 0  9995", "line2": "2 33331  98.1254  56.5214 0002746 283.1614  76.9282 14.64809270922638"}}, "geometry": {"type": "Point", "coordinates": [-120.38838044820346, 17.96552190481272]}}, {"type": "Feature", "properties": {"norad_id": 33396, "name": "THEOS", "group": "resource", "lat": -11.720698272286787, "lon": -138.0131719704891, "alt_km": 829.4322085030808, "timestamp": "2025-12-11T15:53:39.198780+00:00", "meta": {"OBJECT_NAME": "THEOS", "OBJECT_ID": "2008-049A", "EPOCH": "2025-12-11T06:32:21.680160", "MEAN_MOTION": 14.20096163, "ECCENTRICITY": 0.0001135, "INCLINATION": 98.5865, "RA_OF_ASC_NODE": 43.4049, "ARG_OF_PERICENTER": 96.3698, "MEAN_ANOMALY": 263.7608, "EPHEMERIS_TYPE": 0, "CLASSIFICATION_TYPE": "U", "NORAD_CAT_ID": 33396, "ELEMENT_SET_NO": 999, "REV_AT_EPOCH": 89129, "BSTAR": 4.9123625e-05, "MEAN_MOTION_DOT": 6.2e-07, "MEAN_MOTION_DDOT": 0}, "tle": {"line1": "1 33396U 08049A   25345.27247315  .00000062  00000+0  49124-4 0  9996", "line2": "2 33396  98.5865  43.4049 0001135  96.3698 263.7608 14.20096163891295"}}, "geometry": {"type": "Point", "coordinates": [-138.0131719704891, -11.720698272286787]}}, {"type": "Feature", "properties": {"norad_id": 33412, "name": "COSMO-SKYMED 3", "group": "resource", "lat": -50.41135250123856, "lon": -154.36512840040297, "alt_km": 564.6824026653358, "timestamp": "2025-12-11T15:53:39.198791+00:00", "meta": {"OBJECT_NAME": "COSMO-SKYMED 3", "OBJECT_ID": "2008-054A", "EPOCH": "2025-12-11T06:32:57.740928", "MEAN_MOTION": 15.0532932, "ECCENTRICITY": 0.00158762, "INCLINATION": 97.8465, "RA_OF_ASC_NODE": 195.6393, "ARG_OF_PERICENTER": 178.9467, "MEAN_ANOMALY": 181.1795, "EPHEMERIS_TYPE": 0, "CLASSIFICATION_TYPE": "U", "NORAD_CAT_ID": 33412, "ELEMENT_SET_NO": 999, "REV_AT_EPOCH": 92865, "BSTAR": 0.00046524048, "MEAN_MOTION_DOT": 6.615e-05, "MEAN_MOTION_DDOT": 0}, "tle": {"line1": "1 33412U 08054A   25345.27289052  .00006615  00000+0  46524-3 0  9995", "line2": "2 33412  97.8465 195.6393 0015876 178.9467 181.1795 15.05329320928651"}}, "geometry": {"type": "Point", "coordinates": [-154.36512840040297, -50.41135250123856]}}, {"type": "Feature", "properties": {"norad_id": 33446, "name": "YAOGAN-4", "group": "resource", "lat": 17.825971206383393, "lon": -86.7929666285421, "alt_km": 615.2690839749175, "timestamp": "2025-12-11T15:53:39.198805+00:00", "meta": {"OBJECT_NAME": "YAOGAN-4", "OBJECT_ID": "2008-061A", "EPOCH": "2025-12-11T06:05:43.265472", "MEAN_MOTION": 14.82675923, "ECCENTRICITY": 0.00136886, "INCLINATION": 97.918, "RA_OF_ASC_NODE": 275.3679, "ARG_OF_PERICENTER": 328.5714, "MEAN_ANOMALY": 31.4681, "EPHEMERIS_TYPE": 0, "CLASSIFICATION_TYPE": "U", "NORAD_CAT_ID": 33446, "ELEMENT_SET_NO": 999, "REV_AT_EPOCH": 91781, "BSTAR": 0.00032167115, "MEAN_MOTION_DOT": 2.544e-05, "MEAN_MOTION_DDOT": 0}, "tle": {"line1": "1 33446U 08061A   25345.25397298  .00002544  00000+0  32167-3 0  9995", "line2": "2 33446  97.9180 275.3679 0013688 328.5714  31.4681 14.82675923917817"}}, "geometry": {"type": "Point", "coordinates": [-86.7929666285421, 17.825971206383393]}}]}